[
    {
        "Altitude(m)": 617719.7381269622,
        "Argument of Periapsis(deg)": 0.0,
        "Eccentricity": 0.0,
        "Inclination(deg)": 60.0,
        "Latitude(deg)": -41.10255126585029,
        "Longitude(deg)": 35.09471253928157,
        "Mean Anomaly(deg)": -130.90909999999997,
        "RAAN(deg)": 285.0,
        "Satellite Name": "Test1 1268",
        "Satellite Number": 1268,
        "Semi-Major Axis(m)": 6980739.136638005,
        "Time(s)": 0
    },
    {
        "Altitude(m)": 617911.2737176401,
        "Argument of Periapsis(deg)": 0.00010418945913296404,
        "Eccentricity": 0.0,
        "Inclination(deg)": 60.0,
        "Latitude(deg)": -41.56574258807407,
        "Longitude(deg)": 35.59911947321378,
        "Mean Anomaly(deg)": -130.2889938545381,
        "RAAN(deg)": 284.9995799508602,
        "Satellite Name": "Test1 1268",
        "Satellite Number": 1268,
        "Semi-Major Axis(m)": 6980739.136638005,
        "Time(s)": 10
    }
]